QZS-2 (MICHIBIKI-2)     
1 42738U 17028A   26170.47837747 -.00000184  00000+0  00000+0 0  9997
2 42738  39.4240 243.1214 0758837 269.2922  69.3071  1.00283355  7645
QZS-3 (MICHIBIKI-3)     
1 42917U 17048A   26171.48424844 -.00000352  00000+0  00000+0 0  9997
2 42917   0.0575 161.6136 0001992 282.9218 125.4966  1.00274667 32291
QZS-4 (MICHIBIKI-4)     
1 42965U 17062A   26169.35012919 -.00000360  00000+0  00000+0 0  9994
2 42965  40.1070 343.4662 0745019 271.8091 274.2172  1.00250086 31812
QZS-1R (MICHIBIKI-1R)   
1 49336U 21096A   26170.63258758 -.00000290  00000+0  00000+0 0  9993
2 49336  37.4674  79.5460 0754800 271.8525 278.0167  1.00254705 17039
QZS-6 (MICHIBIKI-6)     
1 62876U 25023A   26171.40996537 -.00000237  00000+0  00000+0 0  9992
2 62876   0.0614  73.8005 0001896  19.1523  53.7613  1.00270060  4982
