[
    {
        "OBJECT_NAME": "QZS-2 (MICHIBIKI-2)",
        "OBJECT_ID": "2017-028A",
        "EPOCH": "2026-06-19T11:28:51.813408",
        "MEAN_MOTION": 1.00283355,
        "ECCENTRICITY": 0.0758837,
        "INCLINATION": 39.424,
        "RA_OF_ASC_NODE": 243.1214,
        "ARG_OF_PERICENTER": 269.2922,
        "MEAN_ANOMALY": 69.3071,
        "EPHEMERIS_TYPE": 0,
        "CLASSIFICATION_TYPE": "U",
        "NORAD_CAT_ID": 42738,
        "ELEMENT_SET_NO": 999,
        "REV_AT_EPOCH": 764,
        "BSTAR": 0,
        "MEAN_MOTION_DOT": -1.84e-06,
        "MEAN_MOTION_DDOT": 0
    },
    {
        "OBJECT_NAME": "QZS-3 (MICHIBIKI-3)",
        "OBJECT_ID": "2017-048A",
        "EPOCH": "2026-06-20T11:37:19.065216",
        "MEAN_MOTION": 1.00274667,
        "ECCENTRICITY": 0.0001992,
        "INCLINATION": 0.0575,
        "RA_OF_ASC_NODE": 161.6136,
        "ARG_OF_PERICENTER": 282.9218,
        "MEAN_ANOMALY": 125.4966,
        "EPHEMERIS_TYPE": 0,
        "CLASSIFICATION_TYPE": "U",
        "NORAD_CAT_ID": 42917,
        "ELEMENT_SET_NO": 999,
        "REV_AT_EPOCH": 3229,
        "BSTAR": 0,
        "MEAN_MOTION_DOT": -3.52e-06,
        "MEAN_MOTION_DDOT": 0
    },
    {
        "OBJECT_NAME": "QZS-4 (MICHIBIKI-4)",
        "OBJECT_ID": "2017-062A",
        "EPOCH": "2026-06-18T08:24:11.162016",
        "MEAN_MOTION": 1.00250086,
        "ECCENTRICITY": 0.0745019,
        "INCLINATION": 40.107,
        "RA_OF_ASC_NODE": 343.4662,
        "ARG_OF_PERICENTER": 271.8091,
        "MEAN_ANOMALY": 274.2172,
        "EPHEMERIS_TYPE": 0,
        "CLASSIFICATION_TYPE": "U",
        "NORAD_CAT_ID": 42965,
        "ELEMENT_SET_NO": 999,
        "REV_AT_EPOCH": 3181,
        "BSTAR": 0,
        "MEAN_MOTION_DOT": -3.6e-06,
        "MEAN_MOTION_DDOT": 0
    },
    {
        "OBJECT_NAME": "QZS-1R (MICHIBIKI-1R)",
        "OBJECT_ID": "2021-096A",
        "EPOCH": "2026-06-19T15:10:55.566912",
        "MEAN_MOTION": 1.00254705,
        "ECCENTRICITY": 0.07548004,
        "INCLINATION": 37.4674,
        "RA_OF_ASC_NODE": 79.546,
        "ARG_OF_PERICENTER": 271.8525,
        "MEAN_ANOMALY": 278.0167,
        "EPHEMERIS_TYPE": 0,
        "CLASSIFICATION_TYPE": "U",
        "NORAD_CAT_ID": 49336,
        "ELEMENT_SET_NO": 999,
        "REV_AT_EPOCH": 1703,
        "BSTAR": 0,
        "MEAN_MOTION_DOT": -2.9e-06,
        "MEAN_MOTION_DDOT": 0
    },
    {
        "OBJECT_NAME": "QZS-6 (MICHIBIKI-6)",
        "OBJECT_ID": "2025-023A",
        "EPOCH": "2026-06-20T09:50:21.007968",
        "MEAN_MOTION": 1.0027006,
        "ECCENTRICITY": 0.0001896,
        "INCLINATION": 0.0614,
        "RA_OF_ASC_NODE": 73.8005,
        "ARG_OF_PERICENTER": 19.1523,
        "MEAN_ANOMALY": 53.7613,
        "EPHEMERIS_TYPE": 0,
        "CLASSIFICATION_TYPE": "U",
        "NORAD_CAT_ID": 62876,
        "ELEMENT_SET_NO": 999,
        "REV_AT_EPOCH": 498,
        "BSTAR": 0,
        "MEAN_MOTION_DOT": -2.37e-06,
        "MEAN_MOTION_DDOT": 0
    }
]